[{"OBJECT_NAME":"STARLINK-34447","OBJECT_ID":"2025-142Q","EPOCH":"2026-03-09T22:00:01.999584","MEAN_MOTION":14.98332922,"ECCENTRICITY":0.00031575,"INCLINATION":70.0005,"RA_OF_ASC_NODE":313.8815,"ARG_OF_PERICENTER":279.4366,"MEAN_ANOMALY":91.7096,"EPHEMERIS_TYPE":0,"CLASSIFICATION_TYPE":"U","NORAD_CAT_ID":64710,"ELEMENT_SET_NO":999,"REV_AT_EPOCH":575,"BSTAR":-0.00065258092,"MEAN_MOTION_DOT":-7.871e-5,"MEAN_MOTION_DDOT":0},{"OBJECT_NAME":"FENGYUN 1C DEB","OBJECT_ID":"1999-025BUD","EPOCH":"2026-03-07T11:11:12.390432","MEAN_MOTION":14.83443137,"ECCENTRICITY":0.00894999,"INCLINATION":99.307,"RA_OF_ASC_NODE":307.5923,"ARG_OF_PERICENTER":70.0629,"MEAN_ANOMALY":291.0194,"EPHEMERIS_TYPE":0,"CLASSIFICATION_TYPE":"U","NORAD_CAT_ID":31441,"ELEMENT_SET_NO":999,"REV_AT_EPOCH":65343,"BSTAR":0.0080119516,"MEAN_MOTION_DOT":0.00071223,"MEAN_MOTION_DDOT":0}]
